STARLINK-4294           
1 53176U 22083AW  26062.73190599  .00000407  00000+0  43649-4 0  9996
2 53176  53.2171 175.7780 0001401  85.3050 274.8102 15.08846221200660
STARLINK-4298           
1 53177U 22083AX  26062.69603707  .00000114  00000+0  25227-4 0  9999
2 53177  53.2169 166.0149 0001293 119.1442 240.9680 15.08840943200794
STARLINK-4280           
1 53178U 22083AY  26062.65510091  .00000555  00000+0  52950-4 0  9991
2 53178  53.2170 191.2123 0001187  93.9345 266.1783 15.08839235200439
STARLINK-4276           
1 53179U 22083AZ  26062.64766435  .00003444  00000+0  23417-3 0  9991
2 53179  53.2170 150.8430 0001037 101.5475 258.5634 15.08870787201007
STARLINK-4258           
1 53180U 22083BA  26062.47477004 -.00000166  00000+0  76611-5 0  9990
2 53180  53.2166 151.8925 0001236  92.3327 267.7807 15.08833095200978
STARLINK-4278           
1 53182U 22083BC  26062.69235541  .00000640  00000+0  58320-4 0  9996
2 53182  53.2168 166.0336 0001420 103.2739 256.8412 15.08844371200790
STARLINK-4268           
1 53183U 22083BD  26062.63439072  .00002426  00000+0  17043-3 0  9996
2 53183  53.2171 156.2160 0001260  88.4777 271.6360 15.08848117200923
STARLINK-4257           
1 53184U 22083BE  26062.51152610 -.00001539  00000+0 -78589-4 0  9993
2 53184  53.2169 151.4390 0001177  92.7428 267.3699 15.08844299200992
STARLINK-4391           
1 53189U 22084A   26062.70896559  .00000488  00000+0  38057-4 0  9993
2 53189  97.6031 125.2774 0001028 102.3753 257.7589 15.05647922199153
STARLINK-4332           
1 53190U 22084B   26062.72281333  .00001000  00000+0  73477-4 0  9991
2 53190  97.6029 125.3277 0000150 166.2734 193.8497 15.05648876199151
STARLINK-4369           
1 53191U 22084C   26062.71013951  .00000263  00000+0  24983-4 0  9998
2 53191  97.6030 124.3603 0002342  87.4387 272.7106 15.01260159198411
STARLINK-4375           
1 53192U 22084D   26062.88618653  .00000683  00000+0  51512-4 0  9991
2 53192  97.6024 125.4855 0000289 100.1575 259.9685 15.05644178199170
STARLINK-4351           
1 53193U 22084E   26062.71383660 -.00001003  00000+0 -73580-4 0  9999
2 53193  97.6031 124.3637 0001421 100.0591 260.0794 15.01254020199433
STARLINK-4382           
1 53194U 22084F   26062.70343284  .00000425  00000+0  33666-4 0  9993
2 53194  97.6035 125.2761 0001381 101.7828 258.3554 15.05654791198472
STARLINK-4404           
1 53195U 22084G   26063.00001157  .00568339  00000+0  24656-2 0  9998
2 53195  97.6159 148.2966 0001507  17.2241 346.7186 15.83411468  5795
STARLINK-4407           
1 53196U 22084H   26063.00001157  .00607336  00000+0  26307-2 0  9995
2 53196  97.6155 148.8136 0002177 333.5462 197.4572 15.83349017  6005
