[{"OBJECT_NAME":"STARLINK-4294","OBJECT_ID":"2022-083AW","EPOCH":"2026-03-03T17:33:56.677536","MEAN_MOTION":15.08846221,"ECCENTRICITY":0.00014013,"INCLINATION":53.2171,"RA_OF_ASC_NODE":175.778,"ARG_OF_PERICENTER":85.305,"MEAN_ANOMALY":274.8102,"EPHEMERIS_TYPE":0,"CLASSIFICATION_TYPE":"U","NORAD_CAT_ID":53176,"ELEMENT_SET_NO":999,"REV_AT_EPOCH":20066,"BSTAR":4.364862e-5,"MEAN_MOTION_DOT":4.07e-6,"MEAN_MOTION_DDOT":0},{"OBJECT_NAME":"STARLINK-4298","OBJECT_ID":"2022-083AX","EPOCH":"2026-03-03T16:42:17.602848","MEAN_MOTION":15.08840943,"ECCENTRICITY":0.00012937,"INCLINATION":53.2169,"RA_OF_ASC_NODE":166.0149,"ARG_OF_PERICENTER":119.1442,"MEAN_ANOMALY":240.968,"EPHEMERIS_TYPE":0,"CLASSIFICATION_TYPE":"U","NORAD_CAT_ID":53177,"ELEMENT_SET_NO":999,"REV_AT_EPOCH":20079,"BSTAR":2.5227174e-5,"MEAN_MOTION_DOT":1.14e-6,"MEAN_MOTION_DDOT":0},{"OBJECT_NAME":"STARLINK-4280","OBJECT_ID":"2022-083AY","EPOCH":"2026-03-03T15:43:20.718624","MEAN_MOTION":15.08839235,"ECCENTRICITY":0.00011873,"INCLINATION":53.217,"RA_OF_ASC_NODE":191.2123,"ARG_OF_PERICENTER":93.9345,"MEAN_ANOMALY":266.1783,"EPHEMERIS_TYPE":0,"CLASSIFICATION_TYPE":"U","NORAD_CAT_ID":53178,"ELEMENT_SET_NO":999,"REV_AT_EPOCH":20043,"BSTAR":5.294999e-5,"MEAN_MOTION_DOT":5.55e-6,"MEAN_MOTION_DDOT":0},{"OBJECT_NAME":"STARLINK-4276","OBJECT_ID":"2022-083AZ","EPOCH":"2026-03-03T15:32:38.199840","MEAN_MOTION":15.08870787,"ECCENTRICITY":0.0001037,"INCLINATION":53.217,"RA_OF_ASC_NODE":150.843,"ARG_OF_PERICENTER":101.5475,"MEAN_ANOMALY":258.5634,"EPHEMERIS_TYPE":0,"CLASSIFICATION_TYPE":"U","NORAD_CAT_ID":53179,"ELEMENT_SET_NO":999,"REV_AT_EPOCH":20100,"BSTAR":0.00023417,"MEAN_MOTION_DOT":3.444e-5,"MEAN_MOTION_DDOT":0},{"OBJECT_NAME":"STARLINK-4258","OBJECT_ID":"2022-083BA","EPOCH":"2026-03-03T11:23:40.131456","MEAN_MOTION":15.08833095,"ECCENTRICITY":0.00012365,"INCLINATION":53.2166,"RA_OF_ASC_NODE":151.8925,"ARG_OF_PERICENTER":92.3327,"MEAN_ANOMALY":267.7807,"EPHEMERIS_TYPE":0,"CLASSIFICATION_TYPE":"U","NORAD_CAT_ID":53180,"ELEMENT_SET_NO":999,"REV_AT_EPOCH":20097,"BSTAR":7.661086e-6,"MEAN_MOTION_DOT":-1.66e-6,"MEAN_MOTION_DDOT":0},{"OBJECT_NAME":"STARLINK-4278","OBJECT_ID":"2022-083BC","EPOCH":"2026-03-03T16:36:59.507424","MEAN_MOTION":15.08844371,"ECCENTRICITY":0.00014202,"INCLINATION":53.2168,"RA_OF_ASC_NODE":166.0336,"ARG_OF_PERICENTER":103.2739,"MEAN_ANOMALY":256.8412,"EPHEMERIS_TYPE":0,"CLASSIFICATION_TYPE":"U","NORAD_CAT_ID":53182,"ELEMENT_SET_NO":999,"REV_AT_EPOCH":20079,"BSTAR":5.8319677e-5,"MEAN_MOTION_DOT":6.4e-6,"MEAN_MOTION_DDOT":0},{"OBJECT_NAME":"STARLINK-4268","OBJECT_ID":"2022-083BD","EPOCH":"2026-03-03T15:13:31.358208","MEAN_MOTION":15.08848117,"ECCENTRICITY":0.000126,"INCLINATION":53.2171,"RA_OF_ASC_NODE":156.216,"ARG_OF_PERICENTER":88.4777,"MEAN_ANOMALY":271.636,"EPHEMERIS_TYPE":0,"CLASSIFICATION_TYPE":"U","NORAD_CAT_ID":53183,"ELEMENT_SET_NO":999,"REV_AT_EPOCH":20092,"BSTAR":0.00017043,"MEAN_MOTION_DOT":2.426e-5,"MEAN_MOTION_DDOT":0},{"OBJECT_NAME":"STARLINK-4257","OBJECT_ID":"2022-083BE","EPOCH":"2026-03-03T12:16:35.855040","MEAN_MOTION":15.08844299,"ECCENTRICITY":0.00011776,"INCLINATION":53.2169,"RA_OF_ASC_NODE":151.439,"ARG_OF_PERICENTER":92.7428,"MEAN_ANOMALY":267.3699,"EPHEMERIS_TYPE":0,"CLASSIFICATION_TYPE":"U","NORAD_CAT_ID":53184,"ELEMENT_SET_NO":999,"REV_AT_EPOCH":20099,"BSTAR":-7.8589295e-5,"MEAN_MOTION_DOT":-1.539e-5,"MEAN_MOTION_DDOT":0},{"OBJECT_NAME":"STARLINK-4391","OBJECT_ID":"2022-084A","EPOCH":"2026-03-03T17:00:54.626976","MEAN_MOTION":15.05647922,"ECCENTRICITY":0.00010286,"INCLINATION":97.6031,"RA_OF_ASC_NODE":125.2774,"ARG_OF_PERICENTER":102.3753,"MEAN_ANOMALY":257.7589,"EPHEMERIS_TYPE":0,"CLASSIFICATION_TYPE":"U","NORAD_CAT_ID":53189,"ELEMENT_SET_NO":999,"REV_AT_EPOCH":19915,"BSTAR":3.8056531e-5,"MEAN_MOTION_DOT":4.88e-6,"MEAN_MOTION_DDOT":0},{"OBJECT_NAME":"STARLINK-4332","OBJECT_ID":"2022-084B","EPOCH":"2026-03-03T17:20:51.071712","MEAN_MOTION":15.05648876,"ECCENTRICITY":1.507e-5,"INCLINATION":97.6029,"RA_OF_ASC_NODE":125.3277,"ARG_OF_PERICENTER":166.2734,"MEAN_ANOMALY":193.8497,"EPHEMERIS_TYPE":0,"CLASSIFICATION_TYPE":"U","NORAD_CAT_ID":53190,"ELEMENT_SET_NO":999,"REV_AT_EPOCH":19915,"BSTAR":7.3477315e-5,"MEAN_MOTION_DOT":1.0e-5,"MEAN_MOTION_DDOT":0},{"OBJECT_NAME":"STARLINK-4369","OBJECT_ID":"2022-084C","EPOCH":"2026-03-03T17:02:36.053664","MEAN_MOTION":15.01260159,"ECCENTRICITY":0.00023428,"INCLINATION":97.603,"RA_OF_ASC_NODE":124.3603,"ARG_OF_PERICENTER":87.4387,"MEAN_ANOMALY":272.7106,"EPHEMERIS_TYPE":0,"CLASSIFICATION_TYPE":"U","NORAD_CAT_ID":53191,"ELEMENT_SET_NO":999,"REV_AT_EPOCH":19841,"BSTAR":2.4982856e-5,"MEAN_MOTION_DOT":2.63e-6,"MEAN_MOTION_DDOT":0},{"OBJECT_NAME":"STARLINK-4375","OBJECT_ID":"2022-084D","EPOCH":"2026-03-03T21:16:06.516192","MEAN_MOTION":15.05644178,"ECCENTRICITY":2.892e-5,"INCLINATION":97.6024,"RA_OF_ASC_NODE":125.4855,"ARG_OF_PERICENTER":100.1575,"MEAN_ANOMALY":259.9685,"EPHEMERIS_TYPE":0,"CLASSIFICATION_TYPE":"U","NORAD_CAT_ID":53192,"ELEMENT_SET_NO":999,"REV_AT_EPOCH":19917,"BSTAR":5.1511571e-5,"MEAN_MOTION_DOT":6.83e-6,"MEAN_MOTION_DDOT":0},{"OBJECT_NAME":"STARLINK-4351","OBJECT_ID":"2022-084E","EPOCH":"2026-03-03T17:07:55.482240","MEAN_MOTION":15.0125402,"ECCENTRICITY":0.0001421,"INCLINATION":97.6031,"RA_OF_ASC_NODE":124.3637,"ARG_OF_PERICENTER":100.0591,"MEAN_ANOMALY":260.0794,"EPHEMERIS_TYPE":0,"CLASSIFICATION_TYPE":"U","NORAD_CAT_ID":53193,"ELEMENT_SET_NO":999,"REV_AT_EPOCH":19943,"BSTAR":-7.35802e-5,"MEAN_MOTION_DOT":-1.003e-5,"MEAN_MOTION_DDOT":0},{"OBJECT_NAME":"STARLINK-4382","OBJECT_ID":"2022-084F","EPOCH":"2026-03-03T16:52:56.597376","MEAN_MOTION":15.05654791,"ECCENTRICITY":0.00013814,"INCLINATION":97.6035,"RA_OF_ASC_NODE":125.2761,"ARG_OF_PERICENTER":101.7828,"MEAN_ANOMALY":258.3554,"EPHEMERIS_TYPE":0,"CLASSIFICATION_TYPE":"U","NORAD_CAT_ID":53194,"ELEMENT_SET_NO":999,"REV_AT_EPOCH":19847,"BSTAR":3.3666136e-5,"MEAN_MOTION_DOT":4.25e-6,"MEAN_MOTION_DDOT":0},{"OBJECT_NAME":"STARLINK-4404","OBJECT_ID":"2022-084G","EPOCH":"2026-03-04T00:00:00.999648","MEAN_MOTION":15.83411468,"ECCENTRICITY":0.00015077,"INCLINATION":97.6159,"RA_OF_ASC_NODE":148.2966,"ARG_OF_PERICENTER":17.2241,"MEAN_ANOMALY":346.7186,"EPHEMERIS_TYPE":0,"CLASSIFICATION_TYPE":"U","NORAD_CAT_ID":53195,"ELEMENT_SET_NO":999,"REV_AT_EPOCH":579,"BSTAR":0.0024656052,"MEAN_MOTION_DOT":0.00568339,"MEAN_MOTION_DDOT":0},{"OBJECT_NAME":"STARLINK-4407","OBJECT_ID":"2022-084H","EPOCH":"2026-03-04T00:00:00.999648","MEAN_MOTION":15.83349017,"ECCENTRICITY":0.00021774,"INCLINATION":97.6155,"RA_OF_ASC_NODE":148.8136,"ARG_OF_PERICENTER":333.5462,"MEAN_ANOMALY":197.4572,"EPHEMERIS_TYPE":0,"CLASSIFICATION_TYPE":"U","NORAD_CAT_ID":53196,"ELEMENT_SET_NO":999,"REV_AT_EPOCH":600,"BSTAR":0.0026306933,"MEAN_MOTION_DOT":0.00607336,"MEAN_MOTION_DDOT":0}]
